start=new Date('2023-02-07T00:00:00.000Z').valueOf();
sats=[{"ARG_OF_PERICENTER":"33.6966","REV_AT_EPOCH":"17069","TLE_LINE2":"2 44946  53.0173 312.2226 0000580  33.6966 326.4068 15.25967287170696","OBJECT_NAME":"STARLINK-1110","TLE_LINE1":"1 44946U 20001AJ  23037.74137302  .00011084  00000-0  43837-3 0  9994","OBJECT_ID":"2020-001AJ","NORAD_CAT_ID":"44946","MEAN_MOTION":"15.25967287","ECCENTRICITY":"0.00005800","GP_ID":"224648275","MEAN_MOTION_DDOT":"0.0000000000000","LAUNCH_DATE":"2020-01-07","TIME_SYSTEM":"UTC","CENTER_NAME":"EARTH","OBJECT_TYPE":"PAYLOAD","EPOCH":"2023-02-06T17:47:34.628928","CLASSIFICATION_TYPE":"U","RCS_SIZE":"LARGE","APOAPSIS":"488.283","REF_FRAME":"TEME","EPHEMERIS_TYPE":"0","INCLINATION":"53.0173","MEAN_ELEMENT_THEORY":"SGP4","RA_OF_ASC_NODE":"312.2226","PERIAPSIS":"487.486","MEAN_ANOMALY":"326.4068","BSTAR":"0.00043837000000","PERIOD":"94.366","COUNTRY_CODE":"US","DECAY_DATE":null,"MEAN_MOTION_DOT":"0.00011084","FILE":"3776034","ELEMENT_SET_NO":"999","SITE":"AFETR","SEMIMAJOR_AXIS":"6866.019"},{"SITE":"AFETR","ELEMENT_SET_NO":"999","SEMIMAJOR_AXIS":"6925.328","FILE":"3775845","MEAN_MOTION_DOT":"0.00005083","DECAY_DATE":null,"COUNTRY_CODE":"US","PERIOD":"95.592","BSTAR":"0.00035983000000","MEAN_ANOMALY":"263.1046","PERIAPSIS":"546.369","RA_OF_ASC_NODE":"347.9723","MEAN_ELEMENT_THEORY":"SGP4","INCLINATION":"53.0545","EPHEMERIS_TYPE":"0","APOAPSIS":"548.016","REF_FRAME":"TEME","RCS_SIZE":"LARGE","CLASSIFICATION_TYPE":"U","EPOCH":"2023-02-06T05:35:53.435040","OBJECT_TYPE":"PAYLOAD","TIME_SYSTEM":"UTC","CENTER_NAME":"EARTH","LAUNCH_DATE":"2020-01-07","MEAN_MOTION_DDOT":"0.0000000000000","GP_ID":"224624145","ECCENTRICITY":"0.00011890","MEAN_MOTION":"15.06406839","NORAD_CAT_ID":"44947","OBJECT_ID":"2020-001AK","TLE_LINE1":"1 44947U 20001AK  23037.23325735  .00005083  00000-0  35983-3 0  9993","OBJECT_NAME":"STARLINK-1116","TLE_LINE2":"2 44947  53.0545 347.9723 0001189  97.0079 263.1046 15.06406839170190","REV_AT_EPOCH":"17019","ARG_OF_PERICENTER":"97.0079"},{"OBJECT_NAME":"STARLINK-1122","TLE_LINE1":"1 44949U 20001AM  23037.65714203  .00001561  00000-0  12368-3 0  9992","OBJECT_ID":"2020-001AM","MEAN_MOTION":"15.06400754","NORAD_CAT_ID":"44949","GP_ID":"224648777","ECCENTRICITY":"0.00012350","MEAN_MOTION_DDOT":"0.0000000000000","LAUNCH_DATE":"2020-01-07","TIME_SYSTEM":"UTC","CENTER_NAME":"EARTH","ARG_OF_PERICENTER":"107.0015","REV_AT_EPOCH":"17025","TLE_LINE2":"2 44949  53.0552 346.0704 0001235 107.0015 253.1109 15.06400754170259","MEAN_ANOMALY":"253.1109","PERIAPSIS":"546.356","BSTAR":"0.00012368000000","COUNTRY_CODE":"US","PERIOD":"95.592","DECAY_DATE":null,"MEAN_MOTION_DOT":"0.00001561","FILE":"3776034","SITE":"AFETR","SEMIMAJOR_AXIS":"6925.346","ELEMENT_SET_NO":"999","OBJECT_TYPE":"PAYLOAD","CLASSIFICATION_TYPE":"U","EPOCH":"2023-02-06T15:46:17.071392","RCS_SIZE":"LARGE","APOAPSIS":"548.067","REF_FRAME":"TEME","EPHEMERIS_TYPE":"0","INCLINATION":"53.0552","RA_OF_ASC_NODE":"346.0704","MEAN_ELEMENT_THEORY":"SGP4"},{"TLE_LINE2":"2 44950  53.0578 334.1072 0004611 139.1321 221.0021 15.23249485170373","ARG_OF_PERICENTER":"139.1321","REV_AT_EPOCH":"17037","GP_ID":"224605947","ECCENTRICITY":"0.00046110","NORAD_CAT_ID":"44950","MEAN_MOTION":"15.23249485","CENTER_NAME":"EARTH","TIME_SYSTEM":"UTC","MEAN_MOTION_DDOT":"0.0000000000000","LAUNCH_DATE":"2020-01-07","OBJECT_NAME":"STARLINK-1125","OBJECT_ID":"2020-001AN","TLE_LINE1":"1 44950U 20001AN  23037.10234516  .00072036  00000-0  29860-2 0  9997","EPHEMERIS_TYPE":"0","APOAPSIS":"499.219","REF_FRAME":"TEME","MEAN_ELEMENT_THEORY":"SGP4","RA_OF_ASC_NODE":"334.1072","INCLINATION":"53.0578","OBJECT_TYPE":"PAYLOAD","RCS_SIZE":"LARGE","CLASSIFICATION_TYPE":"U","EPOCH":"2023-02-06T02:27:22.621824","MEAN_MOTION_DOT":"0.00072036","DECAY_DATE":null,"SITE":"AFETR","ELEMENT_SET_NO":"999","SEMIMAJOR_AXIS":"6874.184","FILE":"3775254","BSTAR":"0.00298600000000","PERIAPSIS":"492.879","MEAN_ANOMALY":"221.0021","PERIOD":"94.535","COUNTRY_CODE":"US"},{"APOAPSIS":"488.234","REF_FRAME":"TEME","EPHEMERIS_TYPE":"0","INCLINATION":"53.0210","MEAN_ELEMENT_THEORY":"SGP4","RA_OF_ASC_NODE":"312.5577","OBJECT_TYPE":"PAYLOAD","CLASSIFICATION_TYPE":"U","EPOCH":"2023-02-06T22:35:29.148576","RCS_SIZE":"LARGE","DECAY_DATE":null,"MEAN_MOTION_DOT":"0.00011902","FILE":"3776034","SITE":"AFETR","ELEMENT_SET_NO":"999","SEMIMAJOR_AXIS":"6865.891","PERIAPSIS":"487.278","MEAN_ANOMALY":"192.5540","BSTAR":"0.00046912000000","PERIOD":"94.364","COUNTRY_CODE":"US","TLE_LINE2":"2 44951  53.0210 312.5577 0000696 167.5475 192.5540 15.26010187171996","ARG_OF_PERICENTER":"167.5475","REV_AT_EPOCH":"17199","NORAD_CAT_ID":"44951","MEAN_MOTION":"15.26010187","GP_ID":"224647775","ECCENTRICITY":"0.00006960","LAUNCH_DATE":"2020-01-07","MEAN_MOTION_DDOT":"0.0000000000000","CENTER_NAME":"EARTH","TIME_SYSTEM":"UTC","OBJECT_NAME":"STARLINK-1126","TLE_LINE1":"1 44951U 20001AP  23037.94130959  .00011902  00000-0  46912-3 0  9999","OBJECT_ID":"2020-001AP"},{"ECCENTRICITY":"0.00012610","GP_ID":"224605446","NORAD_CAT_ID":"44952","MEAN_MOTION":"15.06411210","TIME_SYSTEM":"UTC","CENTER_NAME":"EARTH","MEAN_MOTION_DDOT":"0.0000000000000","LAUNCH_DATE":"2020-01-07","OBJECT_NAME":"STARLINK-1117","OBJECT_ID":"2020-001AQ","TLE_LINE1":"1 44952U 20001AQ  23037.24063211  .00010661  00000-0  73327-3 0  9990","TLE_LINE2":"2 44952  53.0546 347.9378 0001261  92.7066 267.4067 15.06411210170191","ARG_OF_PERICENTER":"92.7066","REV_AT_EPOCH":"17019","MEAN_MOTION_DOT":"0.00010661","DECAY_DATE":null,"SITE":"AFETR","ELEMENT_SET_NO":"999","SEMIMAJOR_AXIS":"6925.314","FILE":"3775254","BSTAR":"0.00073327000000","PERIAPSIS":"546.306","MEAN_ANOMALY":"267.4067","PERIOD":"95.591","COUNTRY_CODE":"US","EPHEMERIS_TYPE":"0","APOAPSIS":"548.052","REF_FRAME":"TEME","MEAN_ELEMENT_THEORY":"SGP4","RA_OF_ASC_NODE":"347.9378","INCLINATION":"53.0546","OBJECT_TYPE":"PAYLOAD","RCS_SIZE":"LARGE","EPOCH":"2023-02-06T05:46:30.614304","CLASSIFICATION_TYPE":"U"},{"CENTER_NAME":"EARTH","TIME_SYSTEM":"UTC","LAUNCH_DATE":"2020-01-07","MEAN_MOTION_DDOT":"0.0000000000000","GP_ID":"224649277","ECCENTRICITY":"0.00017590","MEAN_MOTION":"15.06402027","NORAD_CAT_ID":"44953","OBJECT_ID":"2020-001AR","TLE_LINE1":"1 44953U 20001AR  23037.85523958  .00001790  00000-0  13902-3 0  9993","OBJECT_NAME":"STARLINK-1124","TLE_LINE2":"2 44953  53.0548 345.1850 0001759 101.6235 258.4951 15.06402027171570","REV_AT_EPOCH":"17157","ARG_OF_PERICENTER":"101.6235","SEMIMAJOR_AXIS":"6925.342","SITE":"AFETR","ELEMENT_SET_NO":"999","FILE":"3776034","MEAN_MOTION_DOT":"0.00001790","DECAY_DATE":null,"COUNTRY_CODE":"US","PERIOD":"95.592","BSTAR":"0.00013902000000","MEAN_ANOMALY":"258.4951","PERIAPSIS":"545.989","RA_OF_ASC_NODE":"345.1850","MEAN_ELEMENT_THEORY":"SGP4","INCLINATION":"53.0548","EPHEMERIS_TYPE":"0","REF_FRAME":"TEME","APOAPSIS":"548.426","RCS_SIZE":"LARGE","CLASSIFICATION_TYPE":"U","EPOCH":"2023-02-06T20:31:32.699712","OBJECT_TYPE":"PAYLOAD"},{"OBJECT_NAME":"STARLINK-1066","OBJECT_ID":"2020-001AS","TLE_LINE1":"1 44954U 20001AS  23037.80273921  .00001147  00000-0  95892-4 0  9996","GP_ID":"224648026","ECCENTRICITY":"0.00013570","NORAD_CAT_ID":"44954","MEAN_MOTION":"15.06400257","TIME_SYSTEM":"UTC","CENTER_NAME":"EARTH","LAUNCH_DATE":"2020-01-07","MEAN_MOTION_DDOT":"0.0000000000000","ARG_OF_PERICENTER":"94.2031","REV_AT_EPOCH":"17050","TLE_LINE2":"2 44954  53.0544 325.4165 0001357  94.2031 265.9113 15.06400257170500","BSTAR":"0.00009589200000","PERIAPSIS":"546.273","MEAN_ANOMALY":"265.9113","PERIOD":"95.592","COUNTRY_CODE":"US","MEAN_MOTION_DOT":"0.00001147","DECAY_DATE":null,"SITE":"AFETR","SEMIMAJOR_AXIS":"6925.348","ELEMENT_SET_NO":"999","FILE":"3776034","OBJECT_TYPE":"PAYLOAD","RCS_SIZE":"LARGE","EPOCH":"2023-02-06T19:15:56.667744","CLASSIFICATION_TYPE":"U","EPHEMERIS_TYPE":"0","APOAPSIS":"548.153","REF_FRAME":"TEME","MEAN_ELEMENT_THEORY":"SGP4","RA_OF_ASC_NODE":"325.4165","INCLINATION":"53.0544"},{"REV_AT_EPOCH":"17050","ARG_OF_PERICENTER":"98.1500","TLE_LINE2":"2 44955  53.0561 325.3740 0001755  98.1500 261.9689 15.06390579170503","OBJECT_ID":"2020-001AT","TLE_LINE1":"1 44955U 20001AT  23037.81012574  .00000477  00000-0  50959-4 0  9993","OBJECT_NAME":"STARLINK-1069","TIME_SYSTEM":"UTC","CENTER_NAME":"EARTH","LAUNCH_DATE":"2020-01-07","MEAN_MOTION_DDOT":"0.0000000000000","ECCENTRICITY":"0.00017550","GP_ID":"224648276","NORAD_CAT_ID":"44955","MEAN_MOTION":"15.06390579","RCS_SIZE":"LARGE","EPOCH":"2023-02-06T19:26:34.863936","CLASSIFICATION_TYPE":"U","OBJECT_TYPE":"PAYLOAD","MEAN_ELEMENT_THEORY":"SGP4","RA_OF_ASC_NODE":"325.3740","INCLINATION":"53.0561","EPHEMERIS_TYPE":"0","APOAPSIS":"548.458","REF_FRAME":"TEME","PERIOD":"95.593","COUNTRY_CODE":"US","BSTAR":"0.00005095900000","PERIAPSIS":"546.027","MEAN_ANOMALY":"261.9689","SITE":"AFETR","SEMIMAJOR_AXIS":"6925.377","ELEMENT_SET_NO":"999","FILE":"3776034","MEAN_MOTION_DOT":"0.00000477","DECAY_DATE":null},{"TLE_LINE2":"2 44956  53.0545 325.3867 0001468 101.6468 258.4685 15.06403594170565","REV_AT_EPOCH":"17056","ARG_OF_PERICENTER":"101.6468","CENTER_NAME":"EARTH","TIME_SYSTEM":"UTC","LAUNCH_DATE":"2020-01-07","MEAN_MOTION_DDOT":"0.0000000000000","GP_ID":"224648527","ECCENTRICITY":"0.00014680","NORAD_CAT_ID":"44956","MEAN_MOTION":"15.06403594","OBJECT_ID":"2020-001AU","TLE_LINE1":"1 44956U 20001AU  23037.80547715  .00002914  00000-0  21439-3 0  9991","OBJECT_NAME":"STARLINK-1070","MEAN_ELEMENT_THEORY":"SGP4","RA_OF_ASC_NODE":"325.3867","INCLINATION":"53.0545","EPHEMERIS_TYPE":"0","APOAPSIS":"548.219","REF_FRAME":"TEME","RCS_SIZE":"LARGE","CLASSIFICATION_TYPE":"U","EPOCH":"2023-02-06T19:19:53.225760","OBJECT_TYPE":"PAYLOAD","SEMIMAJOR_AXIS":"6925.338","SITE":"AFETR","ELEMENT_SET_NO":"999","FILE":"3776034","MEAN_MOTION_DOT":"0.00002914","DECAY_DATE":null,"PERIOD":"95.592","COUNTRY_CODE":"US","BSTAR":"0.00021439000000","PERIAPSIS":"546.186","MEAN_ANOMALY":"258.4685"}];
